[{"OBJECT_NAME":"STARLINK-35247","OBJECT_ID":"2025-210A","EPOCH":"2026-03-09T21:55:44.383296","MEAN_MOTION":15.30227046,"ECCENTRICITY":0.00013355,"INCLINATION":53.1612,"RA_OF_ASC_NODE":306.1647,"ARG_OF_PERICENTER":93.0229,"MEAN_ANOMALY":267.0924,"EPHEMERIS_TYPE":0,"CLASSIFICATION_TYPE":"U","NORAD_CAT_ID":65622,"ELEMENT_SET_NO":999,"REV_AT_EPOCH":2776,"BSTAR":0.00075859037,"MEAN_MOTION_DOT":0.00022194,"MEAN_MOTION_DDOT":0},{"OBJECT_NAME":"SL-12 R\/B(AUX MOTOR)","OBJECT_ID":"2005-050E","EPOCH":"2026-03-08T07:26:00.239136","MEAN_MOTION":4.2433482,"ECCENTRICITY":0.57510761,"INCLINATION":64.943,"RA_OF_ASC_NODE":98.713,"ARG_OF_PERICENTER":201.1527,"MEAN_ANOMALY":119.6164,"EPHEMERIS_TYPE":0,"CLASSIFICATION_TYPE":"U","NORAD_CAT_ID":28919,"ELEMENT_SET_NO":999,"REV_AT_EPOCH":31206,"BSTAR":0.00050180171,"MEAN_MOTION_DOT":2.02e-6,"MEAN_MOTION_DDOT":0}]
